SL-16 R/B               
1 19120U 88039B   16230.58252494 -.00000010  00000-0  18181-4 0  9997
2 19120  71.0118 246.4144 0024056 291.3986  68.4573 14.19153330463313
COSMOS 1953             
1 19210U 88050A   16230.80072047  .00000652  00000-0  44057-4 0  9991
2 19210  82.5195 327.4436 0012592 208.5158 151.5381 15.04884135532207
SL-8 R/B                
1 19257U 88053B   16230.54413200  .00000098  00000-0  41480-4 0  9997
2 19257  74.0479  54.7410 0020152  18.4052  38.3209 14.37324545475142
COSMOS 1975             
1 19573U 88093A   16230.22420515  .00000908  00000-0  63987-4 0  9990
2 19573  82.5198 279.4821 0013106 251.6846 108.2954 15.03796651514121
SL-14 R/B               
1 19574U 88093B   16230.54983209  .00000113  00000-0  10814-4 0  9999
2 19574  82.5297  68.9399 0022689  40.8685  14.5427 14.83167978504447
SL-16 R/B               
1 19650U 88102B   16231.39369847 -.00000185  00000-0 -69777-4 0  9998
2 19650  71.0002 291.7811 0016719 282.1246  77.8003 14.15745733433130
INTERCOSMOS 24          
1 20261U 89080A   16231.36291880  .00000211  00000-0  53367-4 0  9998
2 20261  82.5937 206.1035 1205759  75.0441 298.0746 12.55793286227953
SL-14 R/B               
1 20262U 89080C   16231.18628035  .00000060  00000-0  16133-4 0  9997
2 20262  82.5906 250.1312 1236500 227.3103 121.7206 12.48819914223893
DELTA 1 R/B             
1 20323U 89089B   16230.52021383  .00000052  00000-0  22721-4 0  9995
2 20323  97.0684 219.0330 0070799 316.9448  42.6223 14.48138305410776
DELTA 2 R/B(1)          
1 20453U 90008B   16231.14682372  .00000867  00000-0  53215-4 0  9998
2 20453  35.6244 209.2915 0293682 169.9441 190.7314 14.81988221403200
COSMOS 2058             
1 20465U 90010A   16230.83722857  .00000411  00000-0  33126-4 0  9996
2 20465  82.4913 179.4643 0014227 233.0403 126.9518 14.97262494439940
SL-14 R/B               
1 20466U 90010B   16231.26965028  .00000103  00000-0  10191-4 0  9999
2 20466  82.5039 296.0221 0019084 252.1111 107.8021 14.81233368432652
SL-14 R/B               
1 20511U 90018B   16230.60897338  .00000121  00000-0  12866-4 0  9994
2 20511  82.5206 236.8002 0018325  33.1240 106.3251 14.79894018427166
HST                     
1 20580U 90037B   16231.23710576  .00000632  00000-0  28329-4 0  9997
2 20580  28.4689 208.9312 0002951 151.4915 327.0030 15.08455758244498
SL-16 R/B               
1 20625U 90046B   16230.87229296  .00000099  00000-0  76480-4 0  9998
2 20625  70.9992  65.7259 0015393 215.5715 238.7095 14.14606478354944
COSMOS 2084             
1 20663U 90055A   16231.17598283  .00000420  00000-0  53992-4 0  9990
2 20663  62.7928 159.2487 0129360  60.0847 301.3021 14.91292732414611
SL-6 R/B(2)             
1 20666U 90055D   16230.57346520  .00000380  00000-0  49567-4 0  9999
2 20666  62.7836  80.8994 0135475  79.4124 282.2196 14.91663657415888
SL-8 R/B                
1 20775U 90078B   16230.80185352  .00003822  00000-0  19311-3 0  9992
2 20775  82.9310 296.5435 0596496 195.5134 162.7063 14.28741410305417
SL-8 R/B                
1 21088U 91006B   16231.43888755 -.00000044  00000-0 -60350-4 0  9994
2 21088  82.9394 245.2793 0024017  88.1888  21.0696 13.77034397283936
OKEAN-3                 
1 21397U 91039A   16230.52955122  .00000423  00000-0  38809-4 0  9998
2 21397  82.5196  66.8082 0018301 167.9671 192.1990 14.92268907364490
COSMOS 2151             
1 21422U 91042A   16231.21385024  .00000294  00000-0  26719-4 0  9999
2 21422  82.5025 174.7273 0013092 221.5862 138.4363 14.91674560363336
SL-14 R/B               
1 21423U 91042B   16231.17297614  .00000099  00000-0  10048-4 0  9993
2 21423  82.4914 244.5642 0018213 158.3431 201.8556 14.79646789357776
ERS-1                   
1 21574U 91050A   16230.44851176  .00000073  00000-0  38317-4 0  9998
2 21574  98.4183 177.1227 0033719 140.6341 219.7306 14.37510519313958
ARIANE 40 R/B           
1 21610U 91050F   16230.77091692  .00000053  00000-0  30723-4 0  9995
2 21610  98.6507 278.7296 0004237 120.9798 349.8302 14.40751633316429
INTERCOSMOS 25          
1 21819U 91086A   16231.17113390  .00001122  00000-0  21647-3 0  9992
2 21819  82.5550 245.2033 1525015  11.5836 351.6505 12.04326843 75808
SL-14 R/B               
1 21820U 91086B   16230.32397032  .00000272  00000-0  50937-4 0  9997
2 21820  82.5615 297.7014 1577697 189.6030 167.1226 11.93185351 70549
SL-8 R/B                
1 21876U 92008B   16229.86873751  .00000008  00000-0 -81156-5 0  9993
2 21876  82.9298 343.3745 0035320 161.7645 313.6102 13.75584733229315
SL-8 R/B                
1 21938U 92020B   16229.94184286 -.00000065  00000-0 -83477-4 0  9994
2 21938  82.9277 226.3270 0028280 323.4119  96.9239 13.75244302221177
SL-16 R/B               
1 22220U 92076B   16231.42768155  .00000106  00000-0  77327-4 0  9990
2 22220  71.0019 336.5345 0012525   4.4770  60.3211 14.16399585227908
SL-16 R/B               
1 22285U 92093B   16230.82383894  .00000264  00000-0  16112-3 0  9995
2 22285  71.0223 128.6587 0005992 242.7736 117.2776 14.14999176219621
COSMOS 2228             
1 22286U 92094A   16230.28218058  .00000299  00000-0  30141-4 0  9993
2 22286  82.5223 300.5931 0021849  53.3086 307.0135 14.87496995277315
SL-16 R/B               
1 22566U 93016B   16230.85278666  .00000260  00000-0  15911-3 0  9998
2 22566  71.0096 343.6340 0012142 240.5162 119.4750 14.14929212208360
COSMOS 2242             
1 22626U 93024A   16231.37751517  .00000276  00000-0  27589-4 0  9995
2 22626  82.5246 327.2495 0020210  49.4031 310.8941 14.87501897261134
SL-16 R/B               
1 22803U 93059B   16231.12023701 -.00000221  00000-0 -86391-4 0  9998
2 22803  70.9907 168.0575 0015383 132.3412 227.9017 14.16750587185351
ARIANE 40 R/B           
1 22830U 93061H   16230.57356562 -.00000056  00000-0 -36056-5 0  9993
2 22830  98.8887 232.9367 0012020  93.6855  13.7604 14.31411811194817
COSMOS 2278             
1 23087U 94023A   16230.51913041  .00000331  00000-0  20008-3 0  9994
2 23087  71.0521 273.6441 0010169 310.2297  49.7935 14.13721163151571
SL-16 R/B               
1 23088U 94023B   16231.13973542 -.00000162  00000-0 -59520-4 0  9992
2 23088  70.9996 198.1028 0004700 230.8421 129.2284 14.14648414152680
SL-16 R/B               
1 23343U 94074B   16230.64999685  .00000019  00000-0  10397-4 0  9991
2 23343  98.1902 258.0541 0006252 336.5293 133.3710 14.76667100172036
SL-16 R/B               
1 23405U 94077B   16229.91700210  .00000255  00000-0  15583-3 0  9998
2 23405  70.9838 135.1218 0001195  12.0091 348.1060 14.15185590122210
ERS-2                   
1 23560U 95021A   16231.43102054  .00002098  00000-0  10328-3 0  9991
2 23560  98.5171 178.0615 0002411 242.9739 117.1246 15.19360605129393
ARIANE 40+ R/B          
1 23561U 95021B   16230.85266470  .00000050  00000-0  32071-4 0  9996
2 23561  98.7745 219.3398 0008174  78.0760 342.9295 14.37757006117667
SL-16 R/B               
1 23705U 95058B   16230.77600382 -.00000264  00000-0 -11135-3 0  9997
2 23705  71.0227 305.6020 0011159  31.1677 329.0106 14.15085655 74266
SL-16 R/B               
1 24298U 96051B   16230.48087890  .00000101  00000-0  81015-4 0  9993
2 24298  70.8410 342.2043 0018941 269.5512  90.3437 14.12423200 28935
ORBVIEW 2 (SEASTAR)     
1 24883U 97037A   16231.22966793  .00000059  00000-0  37102-4 0  9999
2 24883  98.5260 338.2153 0001177 291.7470  68.3589 14.33333371  8501
SL-16 R/B               
1 25400U 98043G   16230.82847410 -.00000021  00000-0  87853-5 0  9991
2 25400  98.4434 183.4616 0011030 101.9737 258.2681 14.25387793941855
SL-16 R/B               
1 25407U 98045B   16230.75963078 -.00000163  00000-0 -58546-4 0  9995
2 25407  71.0135 319.0687 0009812 300.7411  59.2745 14.15750717933237
ISS (ZARYA)             
1 25544U 98067A   16231.18973943  .00004372  00000-0  70898-4 0  9999
2 25544  51.6448 108.6376 0001991 140.1463   4.1544 15.55046168 14633
SL-8 R/B                
1 25723U 99022C   16231.31685420  .00006621  00000-0  12574-3 0  9990
2 25723  48.4193 336.9064 0011187  10.3863  22.9296 15.49383050959450
CZ-4B R/B               
1 25732U 99025C   16231.10592939 -.00000011  00000-0  16897-4 0  9993
2 25732  98.9765 223.4077 0036488 233.1247 168.1491 14.17614197893697
OKEAN-O                 
1 25860U 99039A   16231.40707383  .00000108  00000-0  23090-4 0  9993
2 25860  98.1497 206.7987 0001745  73.1169 287.0231 14.76385442919156
SL-16 R/B               
1 25861U 99039B   16230.48890480  .00000060  00000-0  15599-4 0  9994
2 25861  98.0595 194.5830 0015332 345.0068 125.8590 14.78339383920909
TERRA                   
1 25994U 99068A   16231.23530741 -.00000088  00000-0 -95145-5 0  9996
2 25994  98.2075 304.6524 0000909  64.6588 295.4709 14.57123306886551
SL-14 R/B               
1 26874U 01032B   16231.40890431  .00026198  00000-0  11752-3 0  9990
2 26874  82.4573 213.5662 0004132 347.9379  12.1790 15.83961474845482
ENVISAT                 
1 27386U 02009A   16231.26563132 -.00000010  00000-0  10600-4 0  9991
2 27386  98.2779 282.4445 0001316  81.3636 278.7705 14.37873043757541
IDEFIX & ARIANE 42P R/B 
1 27422U 02021B   16230.53911898 -.00000025  00000-0  61315-5 0  9997
2 27422  98.2298 241.6716 0013468  60.1466 300.1054 14.29247814743301
AQUA                    
1 27424U 02022A   16231.12861324  .00000124  00000-0  37614-4 0  9997
2 27424  98.2019 170.7178 0001516  43.0635  19.6300 14.57118373760142
CZ-4B R/B               
1 27432U 02024C   16230.88939718 -.00000006  00000-0  20230-4 0  9999
2 27432  98.9425 197.4527 0050609 169.8039 209.8452 14.14022061735936
MIDORI II (ADEOS-II)    
1 27597U 02056A   16230.85003195  .00000040  00000-0  33336-4 0  9992
2 27597  98.3271 208.0209 0002030 109.2977 250.8424 14.27227410712154
H-2A R/B                
1 27601U 02056E   16230.83492376  .00000035  00000-0  27889-4 0  9999
2 27601  98.4147 302.4992 0073384 114.2158 357.4126 14.31728802714407
